NORAD_CAT_ID,OBJECT_NAME,OBJECT_TYPE,EPOCH,MEAN_MOTION,ECCENTRICITY,INCLINATION,RA_OF_ASC_NODE,ARG_OF_PERICENTER,MEAN_ANOMALY,BSTAR,MEAN_MOTION_DOT,MEAN_MOTION_DDOT,TLE_LINE0,TLE_LINE1,TLE_LINE2,SEMIMAJOR_AXIS,PERIOD,APOGEE,PERIGEE,DECAYED
54762.0,STARLINK-5214,PAYLOAD,2024-02-19 11:39:21,15.08833374,0.0001354,53.2189,167.5065,106.012,254.1021,6.3523e-05,7.23e-06,0.0,0 STARLINK-5214,1 54762U 22175E   24050.48567049  .00000723  00000-0  63523-4 0  9990,2 54762  53.2189 167.5065 0001354 106.0120 254.1021 15.08833374 64655,6917.901,95.438,540.702,538.829,0.0
54762.0,STARLINK-5214,PAYLOAD,2024-02-19 14:50:08,15.08832186,0.0001411,53.2176,166.9123,95.1974,264.9179,4.9511e-05,5e-06,0.0,0 STARLINK-5214,1 54762U 22175E   24050.61815335  .00000500  00000-0  49511-4 0  9993,2 54762  53.2176 166.9123 0001411  95.1974 264.9179 15.08832186 66833,6917.904,95.438,540.745,538.793,0.0
54762.0,STARLINK-5214,PAYLOAD,2024-02-20 14:40:54,15.08849875,0.0001357,53.2162,162.4504,83.9345,276.1802,3.2648e-05,2.32e-06,0.0,0 STARLINK-5214,1 54762U 22175E   24051.61174383  .00000232  00000-0  32648-4 0  9990,2 54762  53.2162 162.4504 0001357  83.9345 276.1802 15.08849875 66985,6917.85,95.437,540.654,538.776,0.0
54762.0,STARLINK-5214,PAYLOAD,2024-02-21 11:20:55,15.08840552,0.0001523,53.2175,158.5852,83.4892,276.6273,9.0491e-05,1.152e-05,0.0,0 STARLINK-5214,1 54762U 22175E   24052.47286937  .00001152  00000-0  90491-4 0  9996,2 54762  53.2175 158.5852 0001523  83.4892 276.6273 15.08840552 64953,6917.879,95.438,540.797,538.69,0.0
54762.0,STARLINK-5214,PAYLOAD,2024-02-21 14:31:42,15.08838708,0.0001614,53.2171,157.987,68.0062,292.1101,0.00014357,1.998e-05,0.0,0 STARLINK-5214,1 54762U 22175E   24052.60534970  .00001998  00000-0  14357-3 0  9998,2 54762  53.2171 157.9870 0001614  68.0062 292.1101 15.08838708 67137,6917.884,95.438,540.866,538.633,0.0
54762.0,STARLINK-5214,PAYLOAD,2024-02-22 12:47:06,15.08841138,0.0001469,53.2168,153.8272,80.8792,279.2367,-1.1555e-05,-4.72e-06,0.0,0 STARLINK-5214,1 54762U 22175E   24053.53271294 -.00000472  00000-0 -11555-4 0  9994,2 54762  53.2168 153.8272 0001469  80.8792 279.2367 15.08841138 65111,6917.877,95.437,540.758,538.726,0.0
54762.0,STARLINK-5214,PAYLOAD,2024-02-22 14:22:29,15.08843907,0.0001742,53.217,153.5291,64.1521,295.9651,5.7554e-05,6.28e-06,0.0,0 STARLINK-5214,1 54762U 22175E   24053.59895046  .00000628  00000-0  57554-4 0  9997,2 54762  53.2170 153.5291 0001742  64.1521 295.9651 15.08843907 67288,6917.868,95.437,540.939,538.528,0.0
54762.0,STARLINK-5214,PAYLOAD,2024-02-23 12:37:52,15.08845509,0.0001403,53.2166,149.3654,88.0545,272.0607,3.8864e-05,3.31e-06,0.0,0 STARLINK-5214,1 54762U 22175E   24054.52630711  .00000331  00000-0  38864-4 0  9991,2 54762  53.2166 149.3654 0001403  88.0545 272.0607 15.08845509 67427,6917.864,95.437,540.699,538.758,0.0
54762.0,STARLINK-5214,PAYLOAD,2024-02-23 23:45:34,15.08846229,0.0001564,53.216,147.2831,75.7416,284.375,4.5777e-05,4.41e-06,0.0,0 STARLINK-5214,1 54762U 22175E   24054.98998531  .00000441  00000-0  45777-4 0  9991,2 54762  53.2160 147.2831 0001564  75.7416 284.3750 15.08846229 65336,6917.861,95.437,540.808,538.644,0.0
54762.0,STARLINK-5214,PAYLOAD,2024-02-24 12:28:40,15.08841079,0.0001631,53.217,144.9023,96.3422,263.7756,-1.1365e-05,-4.69e-06,0.0,0 STARLINK-5214,1 54762U 22175E   24055.51991127 -.00000469  00000-0 -11365-4 0  9993,2 54762  53.2170 144.9023 0001631  96.3422 263.7756 15.08841079 65419,6917.877,95.437,540.87,538.614,0.0
54762.0,STARLINK-5214,PAYLOAD,2024-02-24 15:39:26,15.08836914,0.0001683,53.2178,144.3068,108.3062,251.8113,6.3102e-05,7.16e-06,0.0,0 STARLINK-5214,1 54762U 22175E   24055.65239168  .00000716  00000-0  63102-4 0  9997,2 54762  53.2178 144.3068 0001683 108.3062 251.8113 15.08836914 67599,6917.89,95.438,540.919,538.591,0.0
54762.0,STARLINK-5214,PAYLOAD,2024-02-25 12:19:26,15.08851655,0.0001542,53.2174,140.4424,90.2309,269.886,4.1228e-05,3.68e-06,0.0,0 STARLINK-5214,1 54762U 22175E   24056.51350289  .00000368  00000-0  41228-4 0  9999,2 54762  53.2174 140.4424 0001542  90.2309 269.8860 15.08851655 65567,6917.845,95.437,540.776,538.643,0.0
54762.0,STARLINK-5214,PAYLOAD,2024-02-25 15:30:12,15.08853782,0.0001544,53.2173,139.8469,90.9885,269.1284,6.8682e-05,8.06e-06,0.0,0 STARLINK-5214,1 54762U 22175E   24056.64598006  .00000806  00000-0  68682-4 0  9994,2 54762  53.2173 139.8469 0001544  90.9885 269.1284 15.08853782 67743,6917.838,95.437,540.771,538.635,0.0
54762.0,STARLINK-5214,PAYLOAD,2024-02-26 12:10:13,15.08846317,0.0001646,53.2171,135.9799,103.1831,256.9345,0.00013493,1.86e-05,0.0,0 STARLINK-5214,1 54762U 22175E   24057.50710350  .00001860  00000-0  13493-3 0  9998,2 54762  53.2171 135.9799 0001646 103.1831 256.9345 15.08846317 65718,6917.861,95.437,540.865,538.587,0.0
54762.0,STARLINK-5214,PAYLOAD,2024-02-27 12:01:02,15.08832924,0.0001644,53.2176,131.5252,100.6852,259.4325,-5.7e-05,-1.195e-05,0.0,0 STARLINK-5214,1 54762U 22175E   24058.50071989 -.00001195  00000-0 -57000-4 0  9993,2 54762  53.2176 131.5252 0001644 100.6852 259.4325 15.08832924 65863,6917.902,95.438,540.904,538.63,0.0
54762.0,STARLINK-5214,PAYLOAD,2024-02-27 21:33:21,15.0883335,0.0001495,53.2172,129.7405,94.6245,265.4918,-9.1185e-05,-1.739e-05,0.0,0 STARLINK-5214,1 54762U 22175E   24058.89816205 -.00001739  00000-0 -91185-4 0  9999,2 54762  53.2172 129.7405 0001495  94.6245 265.4918 15.08833350 68086,6917.901,95.438,540.8,538.731,0.0
54762.0,STARLINK-5214,PAYLOAD,2024-02-28 13:27:12,15.08838686,0.0001467,53.217,126.7667,101.9641,258.1515,2.4498e-05,1.02e-06,0.0,0 STARLINK-5214,1 54762U 22175E   24059.56055886  .00000102  00000-0  24498-4 0  9998,2 54762  53.2170 126.7667 0001467 101.9641 258.1515 15.08838686 68182,6917.884,95.438,540.764,538.735,0.0
54762.0,STARLINK-5214,PAYLOAD,2024-02-29 11:42:35,15.08842197,0.0001449,53.2168,122.6033,87.8096,272.3062,0.00021421,3.123e-05,0.0,0 STARLINK-5214,1 54762U 22175E   24060.48791539  .00003123  00000-0  21421-3 0  9991,2 54762  53.2168 122.6033 0001449  87.8096 272.3062 15.08842197 68320,6917.874,95.437,540.741,538.736,0.0
54762.0,STARLINK-5214,PAYLOAD,2024-02-29 21:14:54,15.08839788,0.0001468,53.2167,120.819,86.0907,274.0253,0.00017292,2.465e-05,0.0,0 STARLINK-5214,1 54762U 22175E   24060.88535849  .00002465  00000-0  17292-3 0  9994,2 54762  53.2167 120.8190 0001468  86.0907 274.0253 15.08839788 66226,6917.881,95.438,540.762,538.73,0.0
54762.0,STARLINK-5214,PAYLOAD,2024-03-01 09:58:00,15.08824316,0.0001313,53.2157,118.4396,95.3508,264.7634,0.00029513,4.41e-05,0.0,0 STARLINK-5214,1 54762U 22175E   24061.41528834  .00004410  00000-0  29513-3 0  9991,2 54762  53.2157 118.4396 0001313  95.3508 264.7634 15.08824316 68463,6917.928,95.439,540.702,538.885,0.0
54762.0,STARLINK-5214,PAYLOAD,2024-03-02 09:48:46,15.08850012,0.0001482,53.2157,113.9782,92.4142,267.702,8.8446e-06,-1.47e-06,0.0,0 STARLINK-5214,1 54762U 22175E   24062.40887499 -.00000147  00000-0  88446-5 0  9992,2 54762  53.2157 113.9782 0001482  92.4142 267.7020 15.08850012 66452,6917.85,95.437,540.74,538.69,0.0
54762.0,STARLINK-5214,PAYLOAD,2024-03-03 03:18:01,15.08838541,0.0001416,53.2147,110.707,93.1648,266.9506,7.861e-05,9.63e-06,0.0,0 STARLINK-5214,1 54762U 22175E   24063.13751915  .00000963  00000-0  78610-4 0  9992,2 54762  53.2147 110.7070 0001416  93.1648 266.9506 15.08838541 66567,6917.885,95.438,540.729,538.77,0.0
54762.0,STARLINK-5214,PAYLOAD,2024-03-03 09:39:34,15.08840305,0.0001426,53.215,109.5172,93.8535,266.262,8.7497e-05,1.105e-05,0.0,0 STARLINK-5214,1 54762U 22175E   24063.40247831  .00001105  00000-0  87497-4 0  9991,2 54762  53.2150 109.5172 0001426  93.8535 266.2620 15.08840305 68768,6917.879,95.438,540.731,538.758,0.0
54762.0,STARLINK-5214,PAYLOAD,2024-03-04 12:41:06,15.08858064,0.0001601,53.2163,104.4608,95.8892,264.2283,8.6038e-05,1.082e-05,0.0,0 STARLINK-5214,1 54762U 22175E   24064.52854522  .00001082  00000-0  86038-4 0  9990,2 54762  53.2163 104.4608 0001601  95.8892 264.2283 15.08858064 66776,6917.825,95.436,540.798,538.583,0.0
54762.0,STARLINK-5214,PAYLOAD,2024-03-05 07:45:46,15.088219,0.0001453,53.2167,100.8963,88.3899,271.726,-0.00017065,-3.001e-05,0.0,0 STARLINK-5214,1 54762U 22175E   24065.32345105 -.00003001  00000-0 -17065-3 0  9999,2 54762  53.2167 100.8963 0001453  88.3899 271.7260 15.08821900 69054,6917.936,95.439,540.806,538.796,0.0
54762.0,STARLINK-5214,PAYLOAD,2024-03-05 18:53:27,15.08833357,0.0001617,53.2162,98.8128,105.0749,255.0422,3.6018e-05,2.85e-06,0.0,0 STARLINK-5214,1 54762U 22175E   24065.78712833  .00000285  00000-0  36018-4 0  9994,2 54762  53.2162  98.8128 0001617 105.0749 255.0422 15.08833357 66962,6917.901,95.438,540.884,538.647,0.0
54762.0,STARLINK-5214,PAYLOAD,2024-03-06 07:36:32,15.08844022,0.0001385,53.2153,96.4292,93.191,266.9241,0.00022822,3.346e-05,0.0,0 STARLINK-5214,1 54762U 22175E   24066.31704511  .00003346  00000-0  22822-3 0  9996,2 54762  53.2153  96.4292 0001385  93.1910 266.9241 15.08844022 67048,6917.868,95.437,540.691,538.775,0.0
54762.0,STARLINK-5214,PAYLOAD,2024-03-07 10:38:06,15.08845158,0.0001506,53.2159,91.3758,92.8116,267.3048,0.00017744,2.537e-05,0.0,0 STARLINK-5214,1 54762U 22175E   24067.44312554  .00002537  00000-0  17744-3 0  9991,2 54762  53.2159  91.3758 0001506  92.8116 267.3048 15.08845158 69373,6917.865,95.437,540.771,538.688,0.0
54762.0,STARLINK-5214,PAYLOAD,2024-03-08 08:53:29,15.08845947,0.0001547,53.2157,87.214,101.0511,259.0655,0.00012743,1.741e-05,0.0,0 STARLINK-5214,1 54762U 22175E   24068.37048400  .00001741  00000-0  12743-3 0  9990,2 54762  53.2157  87.2140 0001547 101.0511 259.0655 15.08845947 69511,6917.862,95.437,540.797,538.657,0.0
54762.0,STARLINK-5214,PAYLOAD,2024-03-08 18:25:48,15.08839864,0.0001664,53.2165,85.4291,88.3777,271.7406,3.6428e-05,2.92e-06,0.0,0 STARLINK-5214,1 54762U 22175E   24068.76792700  .00000292  00000-0  36428-4 0  9999,2 54762  53.2165  85.4291 0001664  88.3777 271.7406 15.08839864 67411,6917.881,95.438,540.897,538.595,0.0
